CCSDS_OMM_VERS = 2.0
CREATION_DATE  = 
ORIGINATOR     = 

OBJECT_NAME    = HXMT (HUIYAN)
OBJECT_ID      = 2017-034A
CENTER_NAME    = EARTH
REF_FRAME      = TEME
TIME_SYSTEM    = UTC
MEAN_ELEMENT_THEORY = SGP/SGP4

EPOCH          = 2026-03-21T15:00:07.915104
MEAN_MOTION    = 15.17614608
ECCENTRICITY   = .00328044
INCLINATION    = 43.0144
RA_OF_ASC_NODE = 310.3109
ARG_OF_PERICENTER = 308.6384
MEAN_ANOMALY   = 51.1529

EPHEMERIS_TYPE = 0
CLASSIFICATION_TYPE = U
NORAD_CAT_ID   = 42758
ELEMENT_SET_NO = 999
REV_AT_EPOCH   = 48435
BSTAR          = .35446799E-3
MEAN_MOTION_DOT = .7123E-4
MEAN_MOTION_DDOT = 0

CCSDS_OMM_VERS = 2.0
CREATION_DATE  = 
ORIGINATOR     = 

OBJECT_NAME    = SAOCOM 1A
OBJECT_ID      = 2018-076A
CENTER_NAME    = EARTH
REF_FRAME      = TEME
TIME_SYSTEM    = UTC
MEAN_ELEMENT_THEORY = SGP/SGP4

EPOCH          = 2026-03-21T13:47:48.500160
MEAN_MOTION    = 14.82151526
ECCENTRICITY   = .00014764
INCLINATION    = 97.8892
RA_OF_ASC_NODE = 268.5796
ARG_OF_PERICENTER = 86.2350
MEAN_ANOMALY   = 273.9032

EPHEMERIS_TYPE = 0
CLASSIFICATION_TYPE = U
NORAD_CAT_ID   = 43641
ELEMENT_SET_NO = 999
REV_AT_EPOCH   = 40312
BSTAR          = .71716E-7
MEAN_MOTION_DOT = -.52E-6
MEAN_MOTION_DDOT = 0

CCSDS_OMM_VERS = 2.0
CREATION_DATE  = 
ORIGINATOR     = 

OBJECT_NAME    = H-2A R/B
OBJECT_ID      = 2018-084L
CENTER_NAME    = EARTH
REF_FRAME      = TEME
TIME_SYSTEM    = UTC
MEAN_ELEMENT_THEORY = SGP/SGP4

EPOCH          = 2026-03-21T13:06:22.899168
MEAN_MOTION    = 15.41824559
ECCENTRICITY   = .00244026
INCLINATION    = 98.8711
RA_OF_ASC_NODE = 300.4726
ARG_OF_PERICENTER = 344.4646
MEAN_ANOMALY   = 15.5844

EPHEMERIS_TYPE = 0
CLASSIFICATION_TYPE = U
NORAD_CAT_ID   = 43682
ELEMENT_SET_NO = 999
REV_AT_EPOCH   = 40760
BSTAR          = .64353301E-3
MEAN_MOTION_DOT = .27516E-3
MEAN_MOTION_DDOT = 0

CCSDS_OMM_VERS = 2.0
CREATION_DATE  = 
ORIGINATOR     = 

OBJECT_NAME    = SAOCOM 1B
OBJECT_ID      = 2020-059A
CENTER_NAME    = EARTH
REF_FRAME      = TEME
TIME_SYSTEM    = UTC
MEAN_ELEMENT_THEORY = SGP/SGP4

EPOCH          = 2026-03-21T14:32:45.674016
MEAN_MOTION    = 14.82147593
ECCENTRICITY   = .00014634
INCLINATION    = 97.8891
RA_OF_ASC_NODE = 267.7083
ARG_OF_PERICENTER = 89.4830
MEAN_ANOMALY   = 270.6551

EPHEMERIS_TYPE = 0
CLASSIFICATION_TYPE = U
NORAD_CAT_ID   = 46265
ELEMENT_SET_NO = 999
REV_AT_EPOCH   = 30051
BSTAR          = .64964406E-4
MEAN_MOTION_DOT = .465E-5
MEAN_MOTION_DDOT = 0

CCSDS_OMM_VERS = 2.0
CREATION_DATE  = 
ORIGINATOR     = 

OBJECT_NAME    = CSS (TIANHE)
OBJECT_ID      = 2021-035A
CENTER_NAME    = EARTH
REF_FRAME      = TEME
TIME_SYSTEM    = UTC
MEAN_ELEMENT_THEORY = SGP/SGP4

EPOCH          = 2026-03-21T13:14:21.613056
MEAN_MOTION    = 15.61263554
ECCENTRICITY   = .00054317
INCLINATION    = 41.4661
RA_OF_ASC_NODE = 135.9532
ARG_OF_PERICENTER = 348.5406
MEAN_ANOMALY   = 11.5308

EPHEMERIS_TYPE = 0
CLASSIFICATION_TYPE = U
NORAD_CAT_ID   = 48274
ELEMENT_SET_NO = 999
REV_AT_EPOCH   = 27946
BSTAR          = .33070013E-3
MEAN_MOTION_DOT = .28655E-3
MEAN_MOTION_DDOT = 0

CCSDS_OMM_VERS = 2.0
CREATION_DATE  = 
ORIGINATOR     = 

OBJECT_NAME    = COSMOS 2550
OBJECT_ID      = 2021-056A
CENTER_NAME    = EARTH
REF_FRAME      = TEME
TIME_SYSTEM    = UTC
MEAN_ELEMENT_THEORY = SGP/SGP4

EPOCH          = 2026-03-20T16:01:39.963360
MEAN_MOTION    = 15.33831857
ECCENTRICITY   = .00081995
INCLINATION    = 67.1449
RA_OF_ASC_NODE = 7.6743
ARG_OF_PERICENTER = 268.9235
MEAN_ANOMALY   = 91.0980

EPHEMERIS_TYPE = 0
CLASSIFICATION_TYPE = U
NORAD_CAT_ID   = 48865
ELEMENT_SET_NO = 999
REV_AT_EPOCH   = 26514
BSTAR          = .125924E-6
MEAN_MOTION_DOT = -.188E-5
MEAN_MOTION_DDOT = 0

CCSDS_OMM_VERS = 2.0
CREATION_DATE  = 
ORIGINATOR     = 

OBJECT_NAME    = CZ-2C R/B
OBJECT_ID      = 2022-058K
CENTER_NAME    = EARTH
REF_FRAME      = TEME
TIME_SYSTEM    = UTC
MEAN_ELEMENT_THEORY = SGP/SGP4

EPOCH          = 2026-03-21T11:13:02.659296
MEAN_MOTION    = 15.55045954
ECCENTRICITY   = .00418009
INCLINATION    = 50.1873
RA_OF_ASC_NODE = 257.6646
ARG_OF_PERICENTER = 251.0748
MEAN_ANOMALY   = 108.5689

EPHEMERIS_TYPE = 0
CLASSIFICATION_TYPE = U
NORAD_CAT_ID   = 52794
ELEMENT_SET_NO = 999
REV_AT_EPOCH   = 21196
BSTAR          = .68162942E-3
MEAN_MOTION_DOT = .48358E-3
MEAN_MOTION_DDOT = 0

CCSDS_OMM_VERS = 2.0
CREATION_DATE  = 
ORIGINATOR     = 

OBJECT_NAME    = CZ-2C R/B
OBJECT_ID      = 2022-132E
CENTER_NAME    = EARTH
REF_FRAME      = TEME
TIME_SYSTEM    = UTC
MEAN_ELEMENT_THEORY = SGP/SGP4

EPOCH          = 2026-03-21T12:58:30.704160
MEAN_MOTION    = 15.62905360
ECCENTRICITY   = .00192212
INCLINATION    = 97.2959
RA_OF_ASC_NODE = 84.2267
ARG_OF_PERICENTER = 53.5122
MEAN_ANOMALY   = 306.7904

EPHEMERIS_TYPE = 0
CLASSIFICATION_TYPE = U
NORAD_CAT_ID   = 54039
ELEMENT_SET_NO = 999
REV_AT_EPOCH   = 19222
BSTAR          = .6722597E-3
MEAN_MOTION_DOT = .61506E-3
MEAN_MOTION_DDOT = 0

CCSDS_OMM_VERS = 2.0
CREATION_DATE  = 
ORIGINATOR     = 

OBJECT_NAME    = GSLV R/B
OBJECT_ID      = 2022-138AN
CENTER_NAME    = EARTH
REF_FRAME      = TEME
TIME_SYSTEM    = UTC
MEAN_ELEMENT_THEORY = SGP/SGP4

EPOCH          = 2026-03-21T11:41:23.906400
MEAN_MOTION    = 14.96848668
ECCENTRICITY   = .00239867
INCLINATION    = 87.3867
RA_OF_ASC_NODE = 162.4134
ARG_OF_PERICENTER = 107.4092
MEAN_ANOMALY   = 252.9765

EPHEMERIS_TYPE = 0
CLASSIFICATION_TYPE = U
NORAD_CAT_ID   = 54149
ELEMENT_SET_NO = 999
REV_AT_EPOCH   = 18569
BSTAR          = .29737967E-3
MEAN_MOTION_DOT = .3455E-4
MEAN_MOTION_DDOT = 0

CCSDS_OMM_VERS = 2.0
CREATION_DATE  = 
ORIGINATOR     = 

OBJECT_NAME    = XRISM
OBJECT_ID      = 2023-137A
CENTER_NAME    = EARTH
REF_FRAME      = TEME
TIME_SYSTEM    = UTC
MEAN_ELEMENT_THEORY = SGP/SGP4

EPOCH          = 2026-03-21T01:32:56.719968
MEAN_MOTION    = 15.11617978
ECCENTRICITY   = .00079528
INCLINATION    = 31.0013
RA_OF_ASC_NODE = 210.0811
ARG_OF_PERICENTER = 153.6143
MEAN_ANOMALY   = 206.4902

EPHEMERIS_TYPE = 0
CLASSIFICATION_TYPE = U
NORAD_CAT_ID   = 57800
ELEMENT_SET_NO = 999
REV_AT_EPOCH   = 13951
BSTAR          = .30304703E-3
MEAN_MOTION_DOT = .5377E-4
MEAN_MOTION_DDOT = 0

CCSDS_OMM_VERS = 2.0
CREATION_DATE  = 
ORIGINATOR     = 

OBJECT_NAME    = ACS3
OBJECT_ID      = 2024-077B
CENTER_NAME    = EARTH
REF_FRAME      = TEME
TIME_SYSTEM    = UTC
MEAN_ELEMENT_THEORY = SGP/SGP4

EPOCH          = 2026-03-21T14:12:53.180352
MEAN_MOTION    = 13.90147295
ECCENTRICITY   = .00694136
INCLINATION    = 97.2007
RA_OF_ASC_NODE = 19.0296
ARG_OF_PERICENTER = 48.8103
MEAN_ANOMALY   = 311.9019

EPHEMERIS_TYPE = 0
CLASSIFICATION_TYPE = U
NORAD_CAT_ID   = 59588
ELEMENT_SET_NO = 999
REV_AT_EPOCH   = 9585
BSTAR          = .2287682E-1
MEAN_MOTION_DOT = .28903E-3
MEAN_MOTION_DDOT = 0

CCSDS_OMM_VERS = 2.0
CREATION_DATE  = 
ORIGINATOR     = 

OBJECT_NAME    = SZ-21 MODULE
OBJECT_ID      = 2025-246C
CENTER_NAME    = EARTH
REF_FRAME      = TEME
TIME_SYSTEM    = UTC
MEAN_ELEMENT_THEORY = SGP/SGP4

EPOCH          = 2026-03-21T11:12:15.021792
MEAN_MOTION    = 15.69416667
ECCENTRICITY   = .00003959
INCLINATION    = 41.4731
RA_OF_ASC_NODE = 130.8135
ARG_OF_PERICENTER = 237.2260
MEAN_ANOMALY   = 122.8544

EPHEMERIS_TYPE = 0
CLASSIFICATION_TYPE = U
NORAD_CAT_ID   = 66515
ELEMENT_SET_NO = 999
REV_AT_EPOCH   = 1992
BSTAR          = .3837318E-3
MEAN_MOTION_DOT = .46337E-3
MEAN_MOTION_DDOT = 0

